[{"OBJECT_NAME":"STARLINK-31519","OBJECT_ID":"2024-074N","EPOCH":"2026-03-09T03:13:56.527392","MEAN_MOTION":15.27560711,"ECCENTRICITY":0.00015156,"INCLINATION":43.0041,"RA_OF_ASC_NODE":346.301,"ARG_OF_PERICENTER":297.9835,"MEAN_ANOMALY":62.0863,"EPHEMERIS_TYPE":0,"CLASSIFICATION_TYPE":"U","NORAD_CAT_ID":59546,"ELEMENT_SET_NO":999,"REV_AT_EPOCH":10593,"BSTAR":-0.00037858741,"MEAN_MOTION_DOT":-0.00010659,"MEAN_MOTION_DDOT":0},{"OBJECT_NAME":"DMSP 5D-2 F14 DEB","OBJECT_ID":"1997-012E","EPOCH":"2026-03-09T23:05:42.500544","MEAN_MOTION":15.25086034,"ECCENTRICITY":0.00083151,"INCLINATION":98.7933,"RA_OF_ASC_NODE":208.6058,"ARG_OF_PERICENTER":272.9178,"MEAN_ANOMALY":87.1104,"EPHEMERIS_TYPE":0,"CLASSIFICATION_TYPE":"U","NORAD_CAT_ID":24778,"ELEMENT_SET_NO":999,"REV_AT_EPOCH":51788,"BSTAR":0.0054670036,"MEAN_MOTION_DOT":0.00139299,"MEAN_MOTION_DDOT":0}]
